MEAN_MOTION;ECCENTRICITY;INCLINATION;RA_OF_ASC_NODE;ARG_OF_PERICENTER;MEAN_ANOMALY;BSTAR;MEAN_MOTION_DOT;MEAN_MOTION_DDOT;TYPE
11.65425438;0.0001351;51.9828;181.5608;116.0731;52.9594;-0.0001084;-8.3E-7;0;Globalstar
11.65425422;0.0001334;51.9828;179.4359;117.3806;339.668;-0.00023955;-9.0E-7;0;Globalstar
11.65425416;0.0001334;51.9828;179.1881;117.695;30.7366;-0.00026078;-9.1E-7;0;Globalstar
11.65425402;0.000131;51.9827;176.5862;119.4074;28.8671;-0.0003135;-9.4E-7;0;Globalstar
11.65425393;0.0001292;51.9827;174.6758;120.5101;319.7133;-0.00028955;-9.3E-7;0;Globalstar
11.65425391;0.0001288;51.9827;174.2013;120.8681;26.9911;-0.00025455;-9.1E-7;0;Globalstar
11.6542538;0.0001273;51.9827;172.9452;121.5214;311.8865;-0.0002171;-8.9E-7;0;Globalstar
11.65425379;0.0001268;51.9826;172.0416;122.2546;11.4178;-0.00017782;-8.7E-7;0;Globalstar
11.65425375;0.0001262;51.9826;171.5869;122.3684;46.2196;-0.00014282;-8.5E-7;0;Globalstar
11.65425424;0.0001239;51.9828;169.6609;123.7925;2.3288;1.1033E-5;-7.7E-7;0;Globalstar
11.65425422;0.0001202;51.9827;166.6124;125.3047;22.5244;1.4925E-5;-7.7E-7;0;Globalstar
11.65425415;0.0001191;51.9827;164.7025;126.5013;312.2978;-5.7111E-6;-7.8E-7;0;Globalstar
11.6542541;0.0001175;51.9825;162.7924;127.5405;242.5372;0.00042014;-5.5E-7;0;Globalstar
11.65425407;0.0001169;51.9825;161.8466;128.4919;11.8869;0.00040053;-5.6E-7;0;Globalstar
11.65425428;0.0001143;51.9825;159.2643;129.7416;337.9593;0.00037357;-5.8E-7;0;Globalstar
11.65425455;0.0001114;51.9824;156.4112;131.379;33.4277;0.0002425;-6.5E-7;0;Globalstar
11.65425471;0.0001087;51.9823;154.2788;133.0184;332.2589;0.00010776;-7.2E-7;0;Globalstar
11.65425491;0.0001068;51.9822;152.5887;134.2962;256.9244;1.4482E-5;-7.7E-7;0;Globalstar
11.65425491;0.0001059;51.9822;151.8987;134.6791;322.1623;-2.4283E-5;-7.9E-7;0;Globalstar
11.6542547;0.0001039;51.9821;149.9818;136.0195;263.274;-0.00016793;-8.6E-7;0;Globalstar
11.65425468;0.0001029;51.9821;149.293;136.4521;326.4762;-0.00015955;-8.6E-7;0;Globalstar
11.6542543;0.0001011;51.9819;147.1383;138.2108;301.9116;-0.00026952;-9.2E-7;0;Globalstar
11.65425454;9.91E-5;51.982;144.3062;140.1207;321.1755;9.1148E-5;-7.3E-7;0;Globalstar
11.65425476;9.65E-5;51.9817;141.681;142.1078;358.0613;7.056E-5;-7.4E-7;0;Globalstar
11.6542545;9.63E-5;51.9817;141.453;142.1283;16.6965;1.7094E-5;-7.7E-7;0;Globalstar
11.6542549;9.47E-5;51.9816;138.9576;144.3547;197.1838;0.0002275;-6.5E-7;0;Globalstar
11.65425476;9.25E-5;51.9815;136.4668;145.9214;10.8596;0.00029309;-6.2E-7;0;Globalstar
11.65425523;8.96E-5;51.9815;134.0882;147.2201;358.5295;0.00043833;-5.4E-7;0;Globalstar
11.65425543;8.54E-5;51.9814;132.4155;147.2151;255.5195;0.00046146;-5.3E-7;0;Globalstar
11.65425575;8.51E-5;51.9814;131.7081;147.3796;349.8073;0.00053524;-4.9E-7;0;Globalstar
11.65425639;8.22E-5;51.9814;129.099;148.6702;0.0341;0.00052878;-4.9E-7;0;Globalstar
11.65425648;7.97E-5;51.9813;126.4944;150.0269;2.795;0.00033271;-6.0E-7;0;Globalstar
11.65425677;7.83E-5;51.9813;125.0491;150.9522;241.364;0.00027773;-6.3E-7;0;Globalstar
11.65425688;7.56E-5;51.9813;122.4429;152.2241;246.7246;7.7053E-5;-7.3E-7;0;Globalstar
11.6542574;7.53E-5;51.9813;121.4976;152.6507;15.7368;0.00013101;-7.0E-7;0;Globalstar
11.65425762;7.27E-5;51.9813;118.9566;153.7915;272.9456;2.3884E-5;-7.6E-7;0;Globalstar
11.65425746;7.05E-5;51.9812;116.5097;154.8977;13.8756;-9.5802E-5;-8.3E-7;0;Globalstar
11.65425747;6.94E-5;51.9812;114.6119;156.0406;283.1314;-0.00010814;-8.3E-7;0;Globalstar
11.65425773;6.72E-5;51.9812;112.6991;156.798;217.8853;7.9954E-6;-7.7E-7;0;Globalstar
11.65425747;6.68E-5;51.9812;112.0076;156.8809;285.6474;-4.1836E-5;-8.0E-7;0;Globalstar
11.65425762;6.6E-5;51.9812;111.5339;156.7403;352.3288;1.5724E-5;-7.7E-7;0;Globalstar
11.65425768;6.32E-5;51.9813;108.927;157.4932;359.1927;0.00013371;-7.0E-7;0;Globalstar
11.65425777;6.13E-5;51.9814;106.793;158.4501;300.8517;0.00021555;-6.6E-7;0;Globalstar
11.6542579;5.94E-5;51.9816;104.6377;159.1916;278.123;0.00024599;-6.4E-7;0;Globalstar
11.65425816;5.93E-5;51.9816;102.6915;160.9126;267.4588;0.00030262;-6.1E-7;0;Globalstar
11.65425857;5.75E-5;51.9818;100.1178;162.0098;219.0181;0.00030472;-6.1E-7;0;Globalstar
11.65425846;5.46E-5;51.982;97.5201;162.1023;211.6152;0.00014202;-7.0E-7;0;Globalstar
11.65425865;5.28E-5;51.9821;95.9348;162.0521;323.5195;6.3049E-5;-7.4E-7;0;Globalstar
11.65425872;5.05E-5;51.9823;93.7381;161.7198;10.8361;-4.0886E-5;-8.0E-7;0;Globalstar
11.65425877;4.76E-5;51.9825;90.95;161.403;320.038;-0.00016074;-8.6E-7;0;Globalstar
11.65425878;4.71E-5;51.9826;90.1457;161.5312;215.091;-0.00016772;-8.6E-7;0;Globalstar
11.65425862;4.51E-5;51.9828;87.5374;160.3225;226.5081;-0.00021817;-8.9E-7;0;Globalstar
11.6542586;4.49E-5;51.9828;86.8299;160.1629;321.1447;-0.00020071;-8.8E-7;0;Globalstar
11.65425856;4.42E-5;51.9829;85.9621;159.703;322.4494;-0.00022343;-8.9E-7;0;Globalstar
11.65425838;4.3E-5;51.9831;84.217;159.5354;339.7256;-0.00019916;-8.8E-7;0;Globalstar
11.65425845;4.26E-5;51.9831;83.8057;159.9738;302.1181;-0.00019547;-8.8E-7;0;Globalstar
11.65425829;4.04E-5;51.9834;80.9762;159.5306;320.135;-0.00013693;-8.5E-7;0;Globalstar
11.65425837;3.98E-5;51.9835;80.1612;159.2775;233.4364;-5.2246E-5;-8.0E-7;0;Globalstar
11.65425853;3.92E-5;51.9837;78.7793;157.7035;9.128;4.1258E-5;-7.5E-7;0;Globalstar
11.65425873;3.85E-5;51.9838;77.3158;157.6238;279.0441;0.00010538;-7.2E-7;0;Globalstar
11.6542586;3.84E-5;51.9839;76.6237;157.2966;348.5275;0.00011418;-7.1E-7;0;Globalstar
11.65425852;3.82E-5;51.9839;76.4019;157.0039;357.0519;9.7495E-5;-7.2E-7;0;Globalstar
11.65425878;3.71E-5;51.9842;73.7937;155.5228;8.9312;0.00016928;-6.8E-7;0;Globalstar
11.65425873;3.66E-5;51.9843;72.5685;155.1198;243.472;0.0001527;-6.9E-7;0;Globalstar
11.65425886;3.55E-5;51.9845;69.9504;152.6311;272.915;0.00010436;-7.2E-7;0;Globalstar
11.65425923;3.45E-5;51.9848;67.3148;150.6438;330.9961;6.3208E-5;-7.4E-7;0;Globalstar
11.65425914;3.42E-5;51.9849;66.6756;150.2564;312.5673;3.4187E-5;-7.6E-7;0;Globalstar
11.65425916;3.4E-5;51.9849;66.4302;149.9284;0.5051;2.2633E-5;-7.6E-7;0;Globalstar
11.65425934;3.34E-5;51.9851;64.0481;147.5461;357.9184;-2.0393E-5;-7.9E-7;0;Globalstar
11.65425935;3.44E-5;51.9851;62.1396;147.2725;287.188;-0.00010414;-8.3E-7;0;Globalstar
11.65425944;3.4E-5;51.9852;61.4442;147.1546;1.8615;-7.2647E-5;-8.1E-7;0;Globalstar
11.65425937;3.38E-5;51.9852;61.214;146.829;24.4344;-0.00010446;-8.3E-7;0;Globalstar
11.65425944;3.37E-5;51.9853;59.7378;145.8909;316.3989;-0.00012783;-8.4E-7;0;Globalstar
11.65425945;3.37E-5;51.9854;58.8371;144.3112;13.6321;-9.4171E-5;-8.2E-7;0;Globalstar
11.6542595;3.35E-5;51.9854;57.6097;143.2406;252.6351;-7.8953E-5;-8.2E-7;0;Globalstar
11.65425932;3.33E-5;51.9855;56.2287;142.0725;26.7189;-0.00013558;-8.5E-7;0;Globalstar
11.65425942;3.32E-5;51.9856;54.5485;140.8995;297.5151;-8.9551E-5;-8.2E-7;0;Globalstar
11.65425951;3.27E-5;51.9857;52.4073;139.8759;253.781;-2.05E-6;-7.8E-7;0;Globalstar
11.65425971;3.27E-5;51.9858;52.1543;139.7783;313.962;3.2769E-5;-7.6E-7;0;Globalstar
11.65425981;3.2E-5;51.9859;49.7668;139.7984;318.0308;0.00012401;-7.1E-7;0;Globalstar
11.65425974;3.22E-5;51.9859;49.5621;139.1494;298.6508;0.00011509;-7.1E-7;0;Globalstar
11.65426004;3.23E-5;51.986;47.157;137.3453;333.7915;0.00021121;-6.6E-7;0;Globalstar
11.65426007;3.25E-5;51.986;46.487;136.573;7.0182;0.00025216;-6.4E-7;0;Globalstar
11.65426009;3.31E-5;51.9862;43.8801;134.5567;17.4615;0.00023739;-6.5E-7;0;Globalstar
11.65426008;3.38E-5;51.9863;41.2724;132.9094;29.0064;0.00016689;-6.9E-7;0;Globalstar
11.65426016;3.43E-5;51.9864;39.5897;131.6963;304.1997;0.00010722;-7.2E-7;0;Globalstar
11.6542601;3.44E-5;51.9864;38.6639;131.1272;42.0065;7.1724E-5;-7.4E-7;0;Globalstar
11.65426011;3.45E-5;51.9864;37.8597;130.324;298.0518;6.7373E-5;-7.4E-7;0;Globalstar
11.65426006;3.49E-5;51.9864;36.9856;130.0794;309.6489;1.4671E-5;-7.7E-7;0;Globalstar
11.65425999;3.52E-5;51.9864;36.2859;129.6184;31.9037;6.8686E-6;-7.7E-7;0;Globalstar
11.65425998;3.58E-5;51.9864;34.6038;129.0155;305.4695;-6.037E-5;-8.1E-7;0;Globalstar
11.65426005;3.58E-5;51.9864;34.384;128.8582;310.7122;-3.3697E-5;-7.9E-7;0;Globalstar
11.65425993;3.53E-5;51.9864;31.9994;127.6941;311.2391;-8.7196E-5;-8.2E-7;0;Globalstar
11.65426015;3.53E-5;51.9864;31.3015;127.022;30.6722;-7.0089E-6;-7.8E-7;0;Globalstar
11.65426017;3.58E-5;51.9864;29.1681;126.6773;333.2566;1.817E-6;-7.7E-7;0;Globalstar
11.65425979;3.65E-5;51.9864;26.985;126.4664;358.1504;-6.8439E-5;-8.1E-7;0;Globalstar
11.65426008;3.68E-5;51.9864;26.1451;126.1027;312.9986;2.8209E-5;-7.6E-7;0;Globalstar
11.65425995;3.77E-5;51.9864;24.4087;125.9576;316.0606;4.142E-5;-7.5E-7;0;Globalstar
11.65425963;3.87E-5;51.9864;22.0261;127.9123;309.9648;-4.2975E-5;-8.0E-7;0;Globalstar
11.65425972;3.88E-5;51.9864;21.8039;127.9062;318.9493;-2.0823E-5;-7.9E-7;0;Globalstar
11.6542595;3.94E-5;51.9863;19.4222;126.8898;314.4335;-7.4674E-5;-8.1E-7;0;Globalstar
11.65425932;3.9E-5;51.9863;19.1953;126.6968;331.3705;-9.4716E-5;-8.2E-7;0;Globalstar
11.6542589;3.95E-5;51.9863;16.8189;126.5417;317.2647;-0.00015466;-8.6E-7;0;Globalstar
11.65425921;3.96E-5;51.9863;16.3443;125.8429;25.9086;-8.5812E-5;-8.2E-7;0;Globalstar
11.65425917;4.01E-5;51.9863;14.2084;125.78;332.3763;-7.6321E-5;-8.2E-7;0;Globalstar
11.65425922;4.03E-5;51.9862;13.7323;125.6027;43.0741;-5.317E-5;-8.0E-7;0;Globalstar
11.65425885;4.11E-5;51.9862;11.6038;126.6638;336.0157;-8.7579E-5;-8.2E-7;0;Globalstar
11.65425876;4.11E-5;51.9862;11.359;126.4498;22.7386;-9.9148E-5;-8.3E-7;0;Globalstar
11.65425884;4.12E-5;51.9863;9.4212;126.2326;0.011;-7.3927E-5;-8.1E-7;0;Globalstar
11.65425867;4.13E-5;51.9862;6.8474;126.4528;313.0929;-7.7209E-5;-8.2E-7;0;Globalstar
11.65425864;4.1E-5;51.9862;6.6177;126.2374;334.7797;-7.8438E-5;-8.2E-7;0;Globalstar
11.65425902;4.06E-5;51.9862;4.4628;126.897;311.7707;1.6175E-5;-7.7E-7;0;Globalstar
11.65425899;4.1E-5;51.9862;3.7649;126.9529;30.4068;9.9413E-6;-7.7E-7;0;Globalstar
11.65425928;4.16E-5;51.9862;1.6315;128.3087;331.048;6.8961E-5;-7.4E-7;0;Globalstar
11.65425944;4.26E-5;51.9861;1.1567;126.362;41.8342;2.4357E-5;-7.6E-7;0;Globalstar
